STARLETTE               
1 07646U 75010A   24184.61891526 -.00000139  00000+0  18439-5 0  9996
2 07646  49.8257  45.0935 0205650 222.4361 136.0471 13.82328785495696
LAGEOS 1                
1 08820U 76039A   24184.55649418 -.00000018  00000+0  00000+0 0  9992
2 08820 109.8604 294.5448 0044168  95.5086 280.8405  6.38665060867503
AJISAI (EGS)            
1 16908U 86061A   24184.56846247 -.00000078  00000+0  14031-3 0  9993
2 16908  50.0062 184.8158 0011278 161.4943 295.6753 12.44506463391400
COSMOS 1989 (ETALON 1)  
1 19751U 89001C   24184.39428059 -.00000052  00000+0  00000+0 0  9996
2 19751  64.5600  96.7159 0023814 215.9695 245.6381  2.13156121276138
COSMOS 2024 (ETALON 2)  
1 20026U 89039C   24182.77076215 -.00000067  00000+0  00000+0 0  9993
2 20026  65.3322 335.0996 0019468 216.9335 113.6264  2.13204328273229
LAGEOS 2                
1 22195U 92070B   24184.46837689 -.00000009  00000+0  00000+0 0  9995
2 22195  52.6792 358.3355 0137519 234.4107 143.8685  6.47293416749154
STELLA                  
1 22824U 93061B   24184.59192767 -.00000022  00000+0  98363-5 0  9990
2 22824  98.8773 231.1167 0006941 145.9624 341.1431 14.27426910602825
LARETS                  
1 27944U 03042F   24184.63132363  .00000176  00000+0  43477-4 0  9993
2 27944  98.3171 325.0223 0013554 106.2275 254.0419 14.63528312108835
LARES                   
1 38077U 12006A   24184.12317716 -.00000050  00000+0 -69616-4 0  9999
2 38077  69.4917  73.6436 0009444 341.2940  18.7738 12.54931548567358
LARES-2                 
1 53105U 22080A   24184.50975372  .00000034  00000+0  00000+0 0  9998
2 53105  70.1403 190.4302 0004949 135.3348 224.7731  6.38965278 46003
